OBJECT_NAME,OBJECT_ID,EPOCH,MEAN_MOTION,ECCENTRICITY,INCLINATION,RA_OF_ASC_NODE,ARG_OF_PERICENTER,MEAN_ANOMALY,EPHEMERIS_TYPE,CLASSIFICATION_TYPE,NORAD_CAT_ID,ELEMENT_SET_NO,REV_AT_EPOCH,BSTAR,MEAN_MOTION_DOT,MEAN_MOTION_DDOT
CUTE-1 (CO-55),2003-031E,2026-06-24T06:32:42.497376,14.24339464,.00099588,98.6736,183.7425,157.9715,202.1894,0,U,27844,999,19268,.12196474E-3,.238E-5,0
CUBESAT XI-IV (CO-57),2003-031J,2026-06-22T23:59:28.134816,14.23623408,.00094237,98.6767,182.1936,179.7329,180.3856,0,U,27848,999,19220,.96660658E-4,.177E-5,0
CUBESAT XI-V,2005-043F,2026-06-24T06:21:49.633920,14.72647893,.00141293,98.2991,331.0356,178.0583,182.0681,0,U,28895,999,10279,.19577932E-3,.1196E-4,0
CUTE-1.7+APD II (CO-65),2008-021C,2026-06-24T05:01:11.932032,15.09511070,.00091377,97.8279,156.7737,17.8170,342.3376,0,U,32785,999,98625,.28053575E-3,.4434E-4,0
CANX-2,2008-021H,2026-06-24T04:47:51.493056,15.05663064,.0011129,97.8641,155.1139,30.7109,329.4766,0,U,32790,999,98586,.22402204E-3,.3174E-4,0
SEEDS II (CO-66),2008-021J,2026-06-24T06:01:30.867744,15.32959787,.00003051,97.7521,173.4867,266.0101,94.1105,0,U,32791,999,98837,.50931434E-3,.16147E-3,0
SWISSCUBE,2009-051B,2026-06-24T00:14:56.767200,14.62492428,.00064478,98.4031,83.0175,180.0638,180.0563,0,U,35932,999,89015,.15858503E-3,.754E-5,0
BEESAT-1,2009-051C,2026-06-23T04:50:47.229792,14.61728503,.00045989,98.3960,81.8178,195.0342,165.0722,0,U,35933,999,89006,.13338749E-3,.616E-5,0
ITUPSAT1,2009-051E,2026-06-24T07:03:47.026656,14.60449650,.00066045,98.4043,82.1112,208.5040,151.5799,0,U,35935,999,88977,.13593293E-3,.61E-5,0
TISAT 1,2010-035E,2026-06-23T14:01:10.782912,15.31915093,.00022671,98.0701,121.7012,156.7166,203.4177,0,U,36799,999,86868,.52704046E-3,.16171E-3,0
AEROCUBE 4.5A,2012-048K,2026-06-23T21:56:20.914944,16.03601761,.00179829,64.6226,2.1131,241.2267,118.7093,0,U,38767,999,37373,.11544053E-2,.746261E-2,.27868364E-3
STRAND-1,2013-009E,2026-06-24T05:26:56.717376,14.37166829,.00081074,98.3925,355.2881,202.3684,157.7151,0,U,39090,999,69807,.95059223E-4,.24E-5,0
BRITE-AUSTRIA,2013-009F,2026-06-24T05:49:52.107744,14.36544475,.00094759,98.3998,354.5040,213.3753,146.6838,0,U,39091,999,69806,.62493311E-4,.141E-5,0
NEE-01 PEGASO,2013-018B,2026-06-23T08:40:52.104288,14.93689152,.00135282,98.1232,318.7162,139.4082,220.8148,0,U,39151,999,71162,.22542166E-3,.2326E-4,0
POPACS 2,2013-055E,2026-06-24T03:42:58.821408,14.91375179,.04165803,80.9903,136.2157,171.3952,189.4713,0,U,39269,999,66425,.23420369E-3,.13923E-3,0
POPACS 3,2013-055F,2026-06-23T20:28:28.266816,14.56228835,.05514842,81.0000,221.9595,49.7042,315.1016,0,U,39270,999,63952,.20710035E-3,.8797E-4,0
ZACUBE-1 (TSHEPISOSAT),2013-066B,2026-06-24T03:20:46.389120,15.01220001,.00417392,97.8056,137.5120,223.8943,135.8962,0,U,39417,999,68177,.19122365E-3,.2435E-4,0
WNISAT-1,2013-066H,2026-06-24T03:24:57.975552,14.58073714,.0162383,97.7209,323.8052,209.5566,149.6382,0,U,39423,999,66774,.17517835E-3,.916E-5,0
TRITON-1,2013-066M,2026-06-24T07:39:09.929952,14.81725605,.00888839,97.8237,84.9629,210.2780,149.3282,0,U,39427,999,67514,.19705564E-3,.1605E-4,0
GOMX-1,2013-066Q,2026-06-24T06:25:20.642592,14.69479948,.01299492,97.6486,15.2832,55.0762,306.2573,0,U,39430,999,67095,.18984707E-3,.123E-4,0
CUBEBUG-2 (LO-74),2013-066AA,2026-06-24T03:55:32.664000,14.93813506,.00577884,97.8904,124.1710,6.1369,354.0545,0,U,39440,999,67803,.30264617E-3,.3255E-4,0
NEE-02 KRYSAOR,2013-066AB,2026-06-23T19:19:38.398656,14.86642886,.00673411,97.8895,113.9726,48.9463,311.7545,0,U,39441,999,67718,.20973573E-3,.1881E-4,0
FUNCUBE-1 (AO-73),2013-066AE,2026-06-23T11:40:32.939904,15.09547873,.00363207,97.8270,146.0634,179.4025,180.7253,0,U,39444,999,68061,.29948666E-3,.4811E-4,0
UWE-3,2013-066AG,2026-06-23T19:59:08.622816,14.97073410,.00468826,97.8705,130.9512,298.7267,60.9247,0,U,39446,999,67857,.33997423E-3,.3944E-4,0
BRITE-CA1 (TORONTO),2014-033L,2026-06-24T07:23:17.396736,14.72685913,.00772647,97.9746,304.1047,253.8059,105.4636,0,U,40020,999,64326,.10924783E-3,.675E-5,0
DUCHIFAT-1,2014-033M,2026-06-24T02:49:57.853344,15.65879628,.00018584,98.0460,235.2586,108.0960,252.0500,0,U,40021,999,65683,.10096818E-2,.103515E-2,0
NANOSATC-BR1,2014-033Q,2026-06-24T01:34:26.061888,15.31646686,.00049756,98.0726,208.0636,146.0135,214.1424,0,U,40024,999,65503,.48648967E-3,.14797E-3,0
QB50P1,2014-033R,2026-06-24T06:25:32.855232,15.18350991,.00085209,98.0965,186.9101,189.6897,170.4172,0,U,40025,999,65410,.34306725E-3,.6977E-4,0
QB50P2,2014-033Y,2026-06-24T05:34:35.646528,15.15236236,.00086672,98.0754,172.5512,141.9580,218.2264,0,U,40032,999,65373,.30955085E-3,.5749E-4,0
PERSEUS-M2,2014-033AD,2026-06-24T06:56:22.584192,14.95534461,.00099738,97.9969,125.9736,278.4169,81.5920,0,U,40037,999,65184,.19398459E-3,.209E-4,0
