CUTE-1 (CO-55)          
1 27844U 03031E   26175.27271409  .00000238  00000+0  12196-3 0  9999
2 27844  98.6736 183.7425 0009958 157.9715 202.1894 14.24339464192684
CUBESAT XI-IV (CO-57)   
1 27848U 03031J   26173.99963119  .00000177  00000+0  96661-4 0  9998
2 27848  98.6767 182.1936 0009423 179.7329 180.3856 14.23623408192208
CUBESAT XI-V            
1 28895U 05043F   26175.26515780  .00001196  00000+0  19578-3 0  9998
2 28895  98.2991 331.0356 0014129 178.0583 182.0681 14.72647893102798
CUTE-1.7+APD II (CO-65) 
1 32785U 08021C   26175.20916588  .00004434  00000+0  28054-3 0  9992
2 32785  97.8279 156.7737 0009137  17.8170 342.3376 15.09511070986256
CANX-2                  
1 32790U 08021H   26175.19990154  .00003174  00000+0  22402-3 0  9998
2 32790  97.8641 155.1139 0011129  30.7109 329.4766 15.05663064985866
SEEDS II (CO-66)        
1 32791U 08021J   26175.25105171  .00016147  00000+0  50931-3 0  9995
2 32791  97.7521 173.4867 0000305 266.0101  94.1105 15.32959787988376
SWISSCUBE               
1 35932U 09051B   26175.01037925  .00000754  00000+0  15859-3 0  9991
2 35932  98.4031  83.0175 0006447 180.0638 180.0563 14.62492428890158
BEESAT-1                
1 35933U 09051C   26174.20193553  .00000616  00000+0  13339-3 0  9990
2 35933  98.3960  81.8178 0004598 195.0342 165.0722 14.61728503890066
ITUPSAT1                
1 35935U 09051E   26175.29429429  .00000610  00000+0  13593-3 0  9992
2 35935  98.4043  82.1112 0006604 208.5040 151.5799 14.60449650889770
TISAT 1                 
1 36799U 10035E   26174.58415258  .00016171  00000+0  52704-3 0  9997
2 36799  98.0701 121.7012 0002267 156.7166 203.4177 15.31915093868681
AEROCUBE 4.5A           
1 38767U 12048K   26174.91413096  .00746261  27868-3  11544-2 0  9996
2 38767  64.6226   2.1131 0017982 241.2267 118.7093 16.03601761373731
STRAND-1                
1 39090U 13009E   26175.22704534  .00000240  00000+0  95059-4 0  9999
2 39090  98.3925 355.2881 0008107 202.3684 157.7151 14.37166829698076
BRITE-AUSTRIA           
1 39091U 13009F   26175.24296421  .00000141  00000+0  62493-4 0  9999
2 39091  98.3998 354.5040 0009475 213.3753 146.6838 14.36544475698068
NEE-01 PEGASO           
1 39151U 13018B   26174.36171417  .00002326  00000+0  22542-3 0  9992
2 39151  98.1232 318.7162 0013528 139.4082 220.8148 14.93689152711620
POPACS 2                
1 39269U 13055E   26175.15484747  .00013923  00000+0  23420-3 0  9995
2 39269  80.9903 136.2157 0416580 171.3952 189.4713 14.91375179664250
POPACS 3                
1 39270U 13055F   26174.85310494  .00008797  00000+0  20710-3 0  9992
2 39270  81.0000 221.9595 0551484  49.7042 315.1016 14.56228835639524
ZACUBE-1 (TSHEPISOSAT)  
1 39417U 13066B   26175.13942580  .00002435  00000+0  19122-3 0  9994
2 39417  97.8056 137.5120 0041739 223.8943 135.8962 15.01220001681770
WNISAT-1                
1 39423U 13066H   26175.14233768  .00000916  00000+0  17518-3 0  9992
2 39423  97.7209 323.8052 0162383 209.5566 149.6382 14.58073714667749
TRITON-1                
1 39427U 13066M   26175.31886493  .00001605  00000+0  19706-3 0  9991
2 39427  97.8237  84.9629 0088883 210.2780 149.3282 14.81725605675147
GOMX-1                  
1 39430U 13066Q   26175.26760003  .00001230  00000+0  18985-3 0  9999
2 39430  97.6486  15.2832 0129949  55.0762 306.2573 14.69479948670955
CUBEBUG-2 (LO-74)       
1 39440U 13066AA  26175.16357250  .00003255  00000+0  30265-3 0  9999
2 39440  97.8904 124.1710 0057788   6.1369 354.0545 14.93813506678035
NEE-02 KRYSAOR          
1 39441U 13066AB  26174.80530554  .00001881  00000+0  20974-3 0  9999
2 39441  97.8895 113.9726 0067341  48.9463 311.7545 14.86642886677181
FUNCUBE-1 (AO-73)       
1 39444U 13066AE  26174.48649236  .00004811  00000+0  29949-3 0  9991
2 39444  97.8270 146.0634 0036320 179.4025 180.7253 15.09547873680611
UWE-3                   
1 39446U 13066AG  26174.83273869  .00003944  00000+0  33997-3 0  9991
2 39446  97.8705 130.9512 0046882 298.7267  60.9247 14.97073410678571
BRITE-CA1 (TORONTO)     
1 40020U 14033L   26175.30784024  .00000675  00000+0  10925-3 0  9993
2 40020  97.9746 304.1047 0077264 253.8059 105.4636 14.72685913643269
DUCHIFAT-1              
1 40021U 14033M   26175.11803071  .00103515  00000+0  10097-2 0  9993
2 40021  98.0460 235.2586 0001858 108.0960 252.0500 15.65879628656832
NANOSATC-BR1            
1 40024U 14033Q   26175.06557942  .00014797  00000+0  48649-3 0  9991
2 40024  98.0726 208.0636 0004975 146.0135 214.1424 15.31646686655037
QB50P1                  
1 40025U 14033R   26175.26774138  .00006977  00000+0  34307-3 0  9999
2 40025  98.0965 186.9101 0008520 189.6897 170.4172 15.18350991654109
QB50P2                  
1 40032U 14033Y   26175.23235702  .00005749  00000+0  30955-3 0  9994
2 40032  98.0754 172.5512 0008667 141.9580 218.2264 15.15236236653735
PERSEUS-M2              
1 40037U 14033AD  26175.28915028  .00002090  00000+0  19398-3 0  9994
2 40037  97.9969 125.9736 0009973 278.4169  81.5920 14.95534461651844
